JILIN-1 GAOFEN 3A       
1 44312U 19032C   26068.74542089  .00016264  00000+0  55381-3 0  9993
2 44312  44.9746 183.2861 0002618 111.2900 248.8263 15.30271310372592
STARLINK-2194           
1 47771U 21017BB  26068.68077411  .00014660  00000+0  51886-3 0  9990
2 47771  53.1565 203.8644 0001150  81.8928 278.2202 15.29387975277873
